JILIN-1 GAOFEN 3H       
1 46460U 20065G   26068.92734633  .00052385  00000+0  74008-3 0  9996
2 46460  97.2405 119.9389 0006965   3.7772 356.3535 15.56370311304392
2022-019D               
1 51827U 22019D   26068.99588081  .00059056  00000+0  75591-3 0  9991
2 51827  97.3688 157.0420 0006856 142.6655 217.5079 15.58993310224192
