[{"OBJECT_NAME":"JILIN-1 GAOFEN 3H","OBJECT_ID":"2020-065G","EPOCH":"2026-03-09T22:15:22.722912","MEAN_MOTION":15.56370311,"ECCENTRICITY":0.00069658,"INCLINATION":97.2405,"RA_OF_ASC_NODE":119.9389,"ARG_OF_PERICENTER":3.7772,"MEAN_ANOMALY":356.3535,"EPHEMERIS_TYPE":0,"CLASSIFICATION_TYPE":"U","NORAD_CAT_ID":46460,"ELEMENT_SET_NO":999,"REV_AT_EPOCH":30439,"BSTAR":0.00074007924,"MEAN_MOTION_DOT":0.00052385,"MEAN_MOTION_DDOT":0},{"OBJECT_NAME":"OBJECT D","OBJECT_ID":"2022-019D","EPOCH":"2026-03-09T23:54:04.101984","MEAN_MOTION":15.5899331,"ECCENTRICITY":0.00068562,"INCLINATION":97.3688,"RA_OF_ASC_NODE":157.042,"ARG_OF_PERICENTER":142.6655,"MEAN_ANOMALY":217.5079,"EPHEMERIS_TYPE":0,"CLASSIFICATION_TYPE":"U","NORAD_CAT_ID":51827,"ELEMENT_SET_NO":999,"REV_AT_EPOCH":22419,"BSTAR":0.00075591427,"MEAN_MOTION_DOT":0.00059056,"MEAN_MOTION_DDOT":0}]
